
STARLINK-5562           
1 56336U 23058V   24336.95596110  .00000293  00000+0  27380-4 0  9992
2 56336  97.6582 335.3644 0002140  86.9068 273.2401 15.01249101 88700
STARLINK-5561           
1 56337U 23058W   24336.94693590  .00000241  00000+0  23339-4 0  9995
2 56337  97.6553 335.3813 0002403  94.5923 265.5576 15.01270634 88706
STARLINK-5554           
1 56338U 23058X   24336.94855338  .00004204  00000+0  33183-3 0  9996
2 56338  97.6567 335.3794 0002223  85.9765 274.1713 15.01243329 88708
STARLINK-5552           
1 56339U 23058Y   24336.74117275  .00000271  00000+0  25695-4 0  9996
2 56339  97.6539 335.1920 0004042  72.6774 287.4892 15.01261597 88679
STARLINK-5540           
1 56340U 23058Z   24336.74672540 -.00000471  00000+0 -32092-4 0  9992
2 56340  97.6548 335.1846 0002634  86.0449 274.1076 15.01270520 88674
STARLINK-5543           
1 56341U 23058AA  24336.74488290  .00005270  00000+0  41461-3 0  9999
2 56341  97.6577 335.1879 0002770  86.4529 273.7012 15.01256073 88679
STARLINK-5955           
1 56342U 23058AB  24336.94298392 -.00000074  00000+0 -11698-5 0  9994
2 56342  97.6548 335.3867 0003726  81.4435 278.7212 15.01264309 88702
STARLINK-5976           
1 56343U 23058AC  24336.73561730  .00000568  00000+0  48801-4 0  9992
2 56343  97.6541 335.1972 0003466  64.5204 295.6379 15.01258554 88671
STARLINK-5974           
1 56344U 23058AD  24336.73932572 -.00000654  00000+0 -46268-4 0  9992
2 56344  97.6531 335.1938 0004121  71.6786 288.4886 15.01267346 88678
STARLINK-5979           
1 56345U 23058AE  24336.26719950  .00000474  00000+0  41490-4 0  9994
2 56345  97.6537 334.7375 0004093  51.7755 308.3837 15.01260850 88118
STARLINK-5837           
1 56346U 23058AF  24336.93742551 -.00002454  00000+0 -18649-3 0  9993
2 56346  97.6547 335.3933 0004214  56.8166 303.3462 15.01255828 88707
STARLINK-5829           
1 56347U 23058AG  24336.46530724  .00000452  00000+0  39783-4 0  9996
2 56347  97.6534 334.9357 0004141  50.4691 309.6898 15.01258771 88141
STARLINK-5888           
1 56348U 23058AH  24336.73956899  .00001921  00000+0  15413-3 0  9997
2 56348  97.6548 335.1940 0004819  71.7187 288.4562 15.01251899 88670
STARLINK-5887           
1 56349U 23058AJ  24336.72636934  .00000116  00000+0  13662-4 0  9992
2 56349  97.6550 335.2013 0001835  85.6024 274.5409 15.01256543 88672
STARLINK-5886           
1 56350U 23058AK  24336.59490625 -.00000131  00000+0 -55726-5 0  9991
2 56350  97.6543 335.0689 0004224  78.6326 281.5373 15.01265359 88656
STARLINK-5891           
1 56351U 23058AL  24336.92446425 -.00000395  00000+0 -26195-4 0  9997
2 56351  97.6544 335.3994 0001585  91.8967 268.2439 15.01257011 88702
STARLINK-5885           
1 56352U 23058AM  24336.46345225  .00001124  00000+0  92087-4 0  9995
2 56352  97.6533 334.9361 0003149  67.9766 292.1793 15.01260502 88149
STARLINK-5874           
1 56353U 23058AN  24336.44492741  .00001639  00000+0  13217-3 0  9998
2 56353  97.6547 334.9543 0000768  95.4339 264.6973 15.01254554 88147
STARLINK-5877           
1 56354U 23058AP  24336.59885579  .00000420  00000+0  37286-4 0  9990
2 56354  97.6540 335.0667 0003449  39.7674 320.3803 15.01258569 88650
STARLINK-5533           
1 56355U 23058AQ  24336.71894690  .00000649  00000+0  55082-4 0  9996
2 56355  97.6556 335.2090 0001306  92.8738 267.2635 15.01258296 88672
STARLINK-5535           
1 56356U 23058AR  24336.92076144  .00008575  00000+0  67083-3 0  9995
2 56356  97.6552 335.4039 0001714  85.4710 274.6710 15.01290178 88700
STARLINK-5538           
1 56357U 23058AS  24336.71919531 -.00000093  00000+0 -26111-5 0  9997
2 56357  97.6557 335.2086 0001304  96.0485 264.0888 15.01254115 88674
STARLINK-5482           
1 56358U 23058AT  24336.92258532  .00003205  00000+0  25388-3 0  9997
2 56358  97.6557 335.4007 0001472  94.0041 266.1351 15.01282793 88707
STARLINK-5551           
1 56359U 23058AU  24336.91729758 -.00000230  00000+0 -13320-4 0  9991
2 56359  97.6553 335.4081 0001132  83.8684 276.2669 15.01255136 88703
STARLINK-5549           
1 56360U 23058AV  24336.91704953  .00000389  00000+0  34856-4 0  9993
2 56360  97.6553 335.4080 0000788 139.9632 220.1650 15.01261330 88707
STARLINK-5550           
1 56361U 23058AW  24335.71545791 -.00001456  00000+0 -10873-3 0  9994
2 56361  97.6554 334.2280 0001236  95.2955 264.8410 15.01268578 88529
STARLINK-5972           
1 56362U 23058AX  24336.71338745  .00000405  00000+0  36131-4 0  9992
2 56362  97.6554 335.2147 0000369 153.8031 206.3212 15.01258117 88670
O3B MPOWER F4           
1 56367U 23059A   24336.48394457 -.00000011  00000+0  00000+0 0  9999
2 56367   0.0596 350.1752 0005713 244.3768 125.4010  5.00117109 30451
O3B MPOWER F3           
1 56368U 23059B   24334.95156513 -.00000012  00000+0  00000+0 0  9990
2 56368   0.0612 350.8750 0006334 261.8451 107.2170  5.00116726 26509
VIASAT-3                
1 56370U 23060A   24333.64009848 -.00000159  00000+0  00000+0 0  9990
2 56370   0.0129 309.7228 0000279 138.3213 121.5427  1.00273722  5770
ARCTURUS                
1 56371U 23060B   24331.02879071 -.00000098  00000+0  00000+0 0  9996
2 56371   1.3033  86.8784 0002089 235.9640 190.9907  1.00271560  5768
GS-1                    
1 56372U 23060C   24335.53125909 -.00000059  00000+0  00000+0 0  9998
2 56372   1.2678  86.2512 0003511 246.2071   4.5374  1.00237678  1889
STARLINK-6156           
1 56374U 23061A   24336.88050436  .00000435  00000+0  47240-4 0  9991
2 56374  43.0031 192.4614 0001134 272.1215  87.9497 15.02537779 88235
STARLINK-6158           
1 56375U 23061B   24336.87492726 -.00017114  00000+0 -12527-2 0  9995
2 56375  43.0087 192.4159 0002215 282.4666  77.5929 15.02599403 87131
STARLINK-6188           
1 56376U 23061C   24336.65443894 -.00000671  00000+0 -34563-4 0  9990
2 56376  43.0002 193.3444 0001175 262.8164  97.2545 15.02548589 87104
STARLINK-6189           
1 56377U 23061D   24336.87162425  .00000493  00000+0  51578-4 0  9998
2 56377  43.0035 192.3919 0001175 278.2123  81.8586 15.02536730 87135
STARLINK-6191           
1 56378U 23061E   24336.32980656  .00000609  00000+0  60154-4 0  9992
2 56378  42.9998 195.2061 0000504 274.6760  85.4025 15.02539239 87342
STARLINK-6157           
1 56379U 23061F   24335.99631295  .00000821  00000+0  75808-4 0  9995
2 56379  42.9991 197.0094 0001307 252.5823 107.4877 15.02536739 87295
STARLINK-6161           
1 56380U 23061G   24336.33205323 -.00002583  00000+0 -17632-3 0  9994
2 56380  43.0041 195.2222 0001969 272.2962  87.7655 15.02515415 87343
STARLINK-6159           
1 56381U 23061H   24336.86718899  .00001128  00000+0  98549-4 0  9999
2 56381  43.0024 192.3578 0001174 272.7559  87.3149 15.02532855 87130
STARLINK-6160           
1 56382U 23061J   24336.65554268 -.00000023  00000+0  13334-4 0  9998
2 56382  43.0007 193.3493 0001080 267.1269  92.9450 15.02534828 87107
STARLINK-6166           
1 56383U 23061K   24336.32534695 -.00003850  00000+0 -27000-3 0  9991
2 56383  43.0035 195.1714 0001297 277.1053  82.9642 15.02552245 87348
STARLINK-6153           
1 56384U 23061L   24336.91367590 -.00002267  00000+0 -15279-3 0  9991
2 56384  43.0011 191.8452 0001447 271.6175  88.4501 15.02529487 87141
STARLINK-6173           
1 56385U 23061M   24336.91812733  .00000987  00000+0  88146-4 0  9995
2 56385  43.0048 191.8766 0001107 281.6272  78.4446 15.02534897 87140
STARLINK-5836           
1 56386U 23061N   24336.90702405  .00000643  00000+0  62701-4 0  9997
2 56386  43.0045 191.7923 0001316 269.7476  90.3215 15.02534560 87141
STARLINK-6178           
1 56387U 23061P   24336.91479695  .00000174  00000+0  27975-4 0  9994
2 56387  43.0027 191.8538 0000875 269.2994  90.7748 15.02533232 87144
STARLINK-6176           
1 56388U 23061Q   24335.90097723  .00000272  00000+0  35186-4 0  9993
2 56388  43.0013 197.1441 0000600 267.1463  92.9311 15.02536551 86995
STARLINK-6145           
1 56389U 23061R   24336.91035569  .00000022  00000+0  16714-4 0  9995
2 56389  43.0040 191.8192 0001359 267.4796  92.5891 15.02533406 87147
STARLINK-6300           
1 56390U 23061S   24330.72160172  .00002560  00000+0  20440-3 0  9998
2 56390  43.0038 213.2358 0000981 298.4505  61.6238 15.02558138 86354
STARLINK-6298           
1 56391U 23061T   24336.90369765  .00000308  00000+0  37834-4 0  9998
2 56391  43.0041 191.7688 0000970 274.5528  85.5204 15.02534065 87142
STARLINK-6301           
1 56392U 23061U   24336.83979087  .00002106  00000+0  17080-3 0  9993
2 56392  43.0041 180.0170 0000453 273.4080  86.6710 15.02555514 87277
STARLINK-6303           
1 56393U 23061V   24336.90036303  .00000063  00000+0  19743-4 0  9996
2 56393  43.0010 191.7421 0001416 266.0358  94.0322 15.02533970 87148
STARLINK-6305           
1 56394U 23061W   24335.89802462 -.00003778  00000+0 -26455-3 0  9996
2 56394  42.9979 184.9908 0002103 283.4427  76.6180 15.02563271 87425
STARLINK-6273           
1 56395U 23061X   24336.56613112  .00000515  00000+0  53192-4 0  9997
2 56395  43.0007 181.4030 0001040 275.8223  84.2501 15.02537721 87520
STARLINK-6302           
1 56396U 23061Y   24336.62372592  .00005459  00000+0  41910-3 0  9995
2 56396  42.9967 180.9727 0001426 279.5761  80.4920 15.02514007 87533
STARLINK-6271           
1 56397U 23061Z   24336.83429903 -.00000563  00000+0 -26611-4 0  9993
2 56397  43.0007 179.9776 0001889 268.9323  91.1303 15.02499736 87278
STARLINK-6288           
1 56398U 23061AA  24336.28800145 -.00000362  00000+0 -11728-4 0  9994
2 56398  43.0022 182.7559 0000347 278.5635  81.5168 15.02536378 87487
STARLINK-6277           
1 56399U 23061AB  24336.62593396  .00005502  00000+0  42170-3 0  9993
2 56399  43.0041 180.9930 0000668 290.3471  69.7299 15.02565716 87535
